TISAT 1                 
1 36799U 10035E   23033.59078643  .00003608  00000+0  33995-3 0  9994
2 36799  98.1564 257.9618 0012910  60.3300 299.9203 14.94436391682310
M-CUBED & EXP-1 PRIME   
1 37855U 11061F   23033.95541809  .00013927  00000+0  53297-3 0  9999
2 37855 101.7105 281.4824 0138033  88.8685 272.8344 15.18315516616600
AEROCUBE 4.5A           
1 38767U 12048K   23033.55830119  .00009309  00000+0  63923-3 0  9995
2 38767  64.6655 107.0637 0149251 198.2355 161.3377 14.97808182185206
AEROCUBE 4.5B           
1 38768U 12048L   23033.43664974  .00011430  00000+0  69522-3 0  9996
2 38768  64.6657  56.1663 0131261 193.1767 166.5913 15.03813627185677
STRAND-1                
1 39090U 13009E   23033.55021927  .00000325  00000+0  12793-3 0  9990
2 39090  98.3917 230.5652 0008181 310.8051  49.2425 14.35434765520420
BRITE-AUSTRIA           
1 39091U 13009F   23033.61006009  .00000212  00000+0  88730-4 0  9992
2 39091  98.3938 229.8299 0009679 317.3380  42.7054 14.35374287520453
SOMP                    
1 39134U 13015E   23033.46201759  .00045118  00000+0  11372-2 0  9999
2 39134  64.8579  22.3359 0023195 252.9067 106.9529 15.39349663542480
BEESAT-3                
1 39135U 13015F   23033.44879439  .00027700  00000+0  90159-3 0  9992
2 39135  64.8633  65.2934 0029864 252.3487 107.4385 15.31351426541652
BEESAT-2                
1 39136U 13015G   23033.87639998  .00019152  00000+0  66221-3 0  9999
2 39136  64.8721  73.7062 0026314 289.0597  70.7686 15.29654018541547
NEE-01 PEGASO           
1 39151U 13018B   23033.72578498  .00002382  00000+0  30824-3 0  9997
2 39151  97.9995 143.8678 0015682 226.3520 133.6393 14.81760985527773
ESTCUBE 1               
1 39161U 13021C   23033.19868018  .00001919  00000+0  30218-3 0  9995
2 39161  97.8855 109.2763 0009949  49.6112 310.5954 14.73573308523295
POPACS 1                
1 39268U 13055D   23033.30384164  .00018690  00000+0  44778-3 0  9998
2 39268  80.9971 350.7073 0534654 221.9549 133.9521 14.59441241486713
POPACS 2                
1 39269U 13055E   23033.09833728  .00014806  00000+0  39017-3 0  9995
2 39269  81.0085  55.3080 0625913  29.8285 333.7073 14.38277599483123
POPACS 3                
1 39270U 13055F   23033.90102338  .00007795  00000+0  22918-3 0  9994
2 39270  81.0124  91.7619 0676220 132.6386 233.3882 14.25241400482112
ZACUBE-1 (TSHEPISOSAT)  
1 39417U 13066B   23033.88243361  .00003521  00000+0  42214-3 0  9992
2 39417  97.6678   0.5239 0056702  10.7964 349.4453 14.83528177497272
WNISAT-1                
1 39423U 13066H   23033.54739824  .00000808  00000+0  16636-3 0  9990
2 39423  97.7210 262.6827 0174185 138.1642 223.3034 14.53826386487881
TRITON-1                
1 39427U 13066M   23033.78333749  .00002283  00000+0  35649-3 0  9990
2 39427  97.8307 324.8622 0108498 247.8758 111.0903 14.69935573492797
DELFI-N3XT              
1 39428U 13066N   23033.76832547  .00004339  00000+0  65195-3 0  9992
2 39428  97.8297 323.5797 0112396 260.7871  98.0609 14.70802796492549
GOMX-1                  
1 39430U 13066Q   23033.78864977  .00002137  00000+0  38183-3 0  9990
2 39430  97.7954 292.7126 0148578  38.6310 322.5406 14.60933393489919
CUBEBUG-2 (LO-74)       
1 39440U 13066AA  23033.38746181  .00002867  00000+0  38363-3 0  9993
2 39440  97.7571 346.7890 0079029 105.0340 255.9634 14.78046698494234
NEE-02 KRYSAOR          
1 39441U 13066AB  23033.40189318  .00001735  00000+0  24329-3 0  9990
2 39441  97.7683 343.8199 0080947 120.0636 240.8634 14.76480017495111
FUNCUBE-1 (AO-73)       
1 39444U 13066AE  23033.44603212  .00005629  00000+0  65025-3 0  9995
2 39444  97.6544   2.5616 0054827 358.9962   1.1134 14.84884063495632
UWE-3                   
1 39446U 13066AG  23033.34710550  .00003600  00000+0  45646-3 0  9994
2 39446  97.7178 353.0168 0068847  60.3612 300.4434 14.80656729494467
AEROCUBE 5A             
1 39465U 13072D   23033.23273969  .00173227  00000+0  49891-2 0  9996
2 39465 120.4776 105.3200 0132801 160.3478 200.2777 15.26401851184271
BRITE-CA1 (TORONTO)     
1 40020U 14033L   23033.85836046  .00001231  00000+0  21458-3 0  9997
2 40020  97.8030 186.5525 0085064 248.4827 110.7294 14.67448453461556
DUCHIFAT-1              
1 40021U 14033M   23033.84347562  .00006786  00000+0  62339-3 0  9990
2 40021  98.0425 353.8924 0011971  11.4043 348.7446 14.95107910469094
NANOSATC-BR1            
1 40024U 14033Q   23033.78037635  .00005133  00000+0  49163-3 0  9998
2 40024  98.0122 345.8951 0011744  16.7975 343.3631 14.93574633468850
QB50P1                  
1 40025U 14033R   23033.36463968  .00004752  00000+0  47371-3 0  9990
2 40025  97.9833 338.0143 0012445  28.0640 332.1246 14.92014591468027
QB50P2                  
1 40032U 14033Y   23033.35085350  .00004420  00000+0  44862-3 0  9996
2 40032  97.9567 332.4439 0011880  26.4329 333.7492 14.91330679467861
PERSEUS-M2              
1 40037U 14033AD  23033.38900426  .00001651  00000+0  18697-3 0  9994
2 40037  97.9050 319.4432 0015290  47.8281 312.4231 14.87698682467809
PERSEUS-M1              
1 40039U 14033AF  23033.31016080  .00001746  00000+0  19925-3 0  9993
2 40039  97.8926 316.6692 0015147  47.4821 312.7671 14.87313937467163
POLYITAN-1              
1 40042U 14033AJ  23033.42264546  .00005675  00000+0  55904-3 0  9993
2 40042  97.9944 339.6308 0014293  19.5100 340.6662 14.92381468467922
TIGRISAT                
1 40043U 14033AK  23033.56335428  .00001990  00000+0  28993-3 0  9991
2 40043  97.6553 215.5261 0059362 129.7699 230.8761 14.75703092463859
AEROCUBE 6A             
1 40045U 14033AM  23033.51391950  .00002772  00000+0  38712-3 0  9999
2 40045  97.6556 224.8755 0056889 116.2223 244.4852 14.77292732463971
AEROCUBE 6B             
1 40046U 14033AN  23033.95403291  .00003248  00000+0  44559-3 0  9995
2 40046  97.6484 223.7093 0055526 112.4826 248.2278 14.77993556464190
UKUBE-1                 
1 40074U 14037F   23033.99280639  .00003671  00000+0  41984-3 0  9992
2 40074  98.3557 291.5041 0002892 267.9088  92.1743 14.86678774464308
BRITE-PL2 (HEWELIUSZ)   
1 40119U 14049B   23033.72753299  .00001807  00000+0  21365-3 0  9993
2 40119  97.8809 132.0730 0016371 204.8743 155.1685 14.85785368458283
FIREBIRD 4              
1 40378U 15003C   23033.83720002  .00043851  00000+0  90745-3 0  9992
2 40378  99.0797 316.9434 0073809 319.9699  39.6116 15.42712502443767
GRIFEX                  
1 40379U 15003D   23033.29562932  .00028857  00000+0  84634-3 0  9998
2 40379  99.0845 298.8435 0101034  13.9273 346.4712 15.30145308442684
CP10 (EXOCUBE)          
1 40380U 15003E   23033.23344397  .00019986  00000+0  67258-3 0  9993
2 40380  99.0935 290.1605 0113301  42.6614 318.3348 15.24803105442107
EXACTVIEW 9             
1 40936U 15052G   23033.57628875  .00002366  00000+0  23379-3 0  9997
2 40936   6.0053 330.5083 0010229 182.4769 177.5308 14.77789188397348
AEROCUBE 5C             
1 40965U 15058B   23033.53532970  .00001649  00000+0  19789-3 0  9994
2 40965  64.7733  92.3414 0167137 122.5549 239.1825 14.78203026182938
AEROCUBE 7              
1 40966U 15058C   23033.55297076  .00001957  00000+0  22840-3 0  9996
2 40966  64.7724  89.0285 0164916 122.3609 239.3583 14.78935127182943
ATHENOXAT 1             
1 41168U 15077C   23034.02680425  .00038567  00000+0  11948-2 0  9992
2 41168  14.9827 171.5091 0004848 262.3341 246.0367 15.31439294395558
GALASSIA                
1 41170U 15077E   23033.65578454  .00023379  00000+0  81004-3 0  9997
2 41170  14.9859 169.5252 0008098 277.0181  82.9221 15.27452482395531
VELOX-II                
1 41171U 15077F   23032.88478279  .00015225  00000+0  63766-3 0  9992
2 41171  14.9904 262.5230 0007015  72.5115 287.5974 15.20669479394521
HORYU-4                 
1 41340U 16012D   23033.91306875  .00006136  00000+0  41130-3 0  9999
2 41340  31.0056 325.4844 0012673 334.0697  25.9304 15.05367101382454
E-ST@R-II               
1 41459U 16025D   23033.97405031  .00026894  00000+0  97922-3 0  9997
2 41459  98.1927 222.5102 0126498 203.4933 156.0552 15.20878273372435
AAUSAT 4                
1 41460U 16025E   23034.01604523  .00049981  00000+0  13615-2 0  9990
2 41460  98.1752 231.5361 0095216 169.8309 342.7169 15.32788950373068
BEESAT-4                
1 41619U 16040W   23033.12247475  .00032635  00000+0  79322-3 0  9999
2 41619  97.1850  83.4058 0007564  20.4565 339.6984 15.40892812355954
RAVAN                   
1 41849U 16067B   23033.41169070  .00008085  00000+0  60356-3 0  9998
2 41849  98.0172 182.6319 0016355 281.2965  78.6422 15.03013330340508
CELTEE 1                
1 41850U 16067C   23033.87525117  .00004397  00000+0  36004-3 0  9993
2 41850  98.0251 177.3065 0004604 315.4308  44.6543 14.99844151340270
OPTICUBE 04             
1 41851U 16067D   23033.38761817  .00002706  00000+0  23039-3 0  9995
2 41851  98.0215 175.5088 0007851 294.5634  65.4769 14.98673435340132
AEROCUBE 8D             
1 41852U 16067E   23033.66910808  .00004946  00000+0  40345-3 0  9990
2 41852  98.0206 176.0606 0005050 314.7254  45.3557 14.99924477340180
AEROCUBE 8C             
1 41853U 16067F   23033.85443922  .00004252  00000+0  34785-3 0  9991
2 41853  98.0172 176.0489 0007515 276.0394  83.9972 14.99890700340208
PROMETHEUS 2-1          
1 41854U 16067G   23033.37966256  .00008273  00000+0  63084-3 0  9990
2 41854  98.0478 177.5162 0016888 312.2252  47.7538 15.02194972340222
PROMETHEUS 2-3          
1 41855U 16067H   23033.37113716  .00007649  00000+0  58444-3 0  9996
2 41855  98.0379 177.5125 0015006 322.6799  37.3381 15.02168740340229
INS-1B                  
1 41954U 17008G   23033.88154341  .00026611  00000+0  65355-3 0  9996
2 41954  97.2258  94.7254 0006795 122.7196 237.4706 15.40623627332096
BGUSAT                  
1 41999U 17008BD  23033.96774184  .00286931  00000+0  15561-2 0  9993
2 41999  97.2485 111.9786 0001993 325.2759  34.8378 15.79253498332393
